[{"OBJECT_NAME":"SHIYAN-1 (SY-1)","OBJECT_ID":"2004-012A","EPOCH":"2026-03-09T17:40:34.066560","MEAN_MOTION":15.31043463,"ECCENTRICITY":0.00058726,"INCLINATION":97.8764,"RA_OF_ASC_NODE":140.5238,"ARG_OF_PERICENTER":23.6952,"MEAN_ANOMALY":336.4557,"EPHEMERIS_TYPE":0,"CLASSIFICATION_TYPE":"U","NORAD_CAT_ID":28220,"ELEMENT_SET_NO":999,"REV_AT_EPOCH":19586,"BSTAR":0.00054854449,"MEAN_MOTION_DOT":0.00016393,"MEAN_MOTION_DDOT":0},{"OBJECT_NAME":"STARLINK-35016","OBJECT_ID":"2025-189U","EPOCH":"2026-03-09T16:13:17.531904","MEAN_MOTION":15.30200147,"ECCENTRICITY":0.00010914,"INCLINATION":53.1572,"RA_OF_ASC_NODE":206.8759,"ARG_OF_PERICENTER":52.1383,"MEAN_ANOMALY":307.9716,"EPHEMERIS_TYPE":0,"CLASSIFICATION_TYPE":"U","NORAD_CAT_ID":65341,"ELEMENT_SET_NO":999,"REV_AT_EPOCH":3105,"BSTAR":0.001441323,"MEAN_MOTION_DOT":0.00042574,"MEAN_MOTION_DDOT":0}]
