SHIYAN-1 (SY-1)         
1 28220U 04012A   26068.73650539  .00016393  00000+0  54854-3 0  9991
2 28220  97.8764 140.5238 0005873  23.6952 336.4557 15.31043463195862
STARLINK-35016          
1 65341U 25189U   26068.67589735  .00042574  00000+0  14413-2 0  9992
2 65341  53.1572 206.8759 0001091  52.1383 307.9716 15.30200147 31059
